[{"OBJECT_NAME":"WEILAI 1R","OBJECT_ID":"2019-093F","EPOCH":"2026-03-09T22:33:48.244608","MEAN_MOTION":14.997592,"ECCENTRICITY":0.00116762,"INCLINATION":97.7939,"RA_OF_ASC_NODE":158.7373,"ARG_OF_PERICENTER":23.5076,"MEAN_ANOMALY":336.6679,"EPHEMERIS_TYPE":0,"CLASSIFICATION_TYPE":"U","NORAD_CAT_ID":44884,"ELEMENT_SET_NO":999,"REV_AT_EPOCH":33754,"BSTAR":0.00050142794,"MEAN_MOTION_DOT":6.146e-5,"MEAN_MOTION_DDOT":0},{"OBJECT_NAME":"STARLINK-36163","OBJECT_ID":"2025-293F","EPOCH":"2026-03-09T19:16:57.465696","MEAN_MOTION":14.98323714,"ECCENTRICITY":0.00036157,"INCLINATION":70.0013,"RA_OF_ASC_NODE":94.2216,"ARG_OF_PERICENTER":273.6774,"MEAN_ANOMALY":86.3972,"EPHEMERIS_TYPE":0,"CLASSIFICATION_TYPE":"U","NORAD_CAT_ID":67008,"ELEMENT_SET_NO":999,"REV_AT_EPOCH":1490,"BSTAR":0.00020625941,"MEAN_MOTION_DOT":2.369e-5,"MEAN_MOTION_DDOT":0}]
